ONEWEB-0379             
1 49305U 21090AC  25284.13269381  .00000113  00000+0  27008-3 0  9991
2 49305  87.9048 339.3136 0001730  98.4602 261.6724 13.14503260194846
ONEWEB-0380             
1 49306U 21090AD  25284.20276809  .00000046  00000+0  81544-4 0  9994
2 49306  87.9274 354.5039 0001943  94.2965 265.8390 13.19723589193589
ONEWEB-0381             
1 49307U 21090AE  25284.14575557  .00000155  00000+0  34901-3 0  9995
2 49307  87.9219 324.1062 0001856  87.9784 272.1562 13.20772298196958
ONEWEB-0382             
1 49308U 21090AF  25284.13310948 -.00000181  00000+0 -47654-3 0  9996
2 49308  87.9224 324.1001 0001738  88.5189 271.6144 13.20770997196946
ONEWEB-0383             
1 49309U 21090AG  25284.20247948 -.00000005  00000+0 -48201-4 0  9999
2 49309  87.9053 339.2821 0001685  96.5189 263.6132 13.14502278194881
ONEWEB-0384             
1 49310U 21090AH  25284.12773963  .00000025  00000+0  29181-4 0  9999
2 49310  87.9244 324.1306 0001500  83.8198 276.3106 13.20794561196958
ONEWEB-0385             
1 49311U 21090AJ  25284.20099718  .00000088  00000+0  18508-3 0  9997
2 49311  87.9222 324.0972 0001795  92.2338 267.9001 13.20772232196938
ONEWEB-0386             
1 49312U 21090AK  25284.14258381  .00000068  00000+0  13487-3 0  9993
2 49312  87.9231 324.0870 0001699  90.0430 270.0898 13.20769465196942
